{"type": "FeatureCollection", "features": [ {"type": "Feature", "properties": {"norad_id": 37834, "name": "INTELSAT 18 (IS-18)", "group": "intelsat", "lat": 0.0029168111480680184, "lon": -28.682715986587862, "alt_km": 35780.692810607725, "timestamp": "2025-12-24T03:53:29.310172+00:00", "meta": {"OBJECT_NAME": "INTELSAT 18 (IS-18)", "OBJECT_ID": "2011-056A", "EPOCH": "2025-12-23T17:24:42.196032", "MEAN_MOTION": 1.00271479, "ECCENTRICITY": 0.0001779, "INCLINATION": 0.025, "RA_OF_ASC_NODE": 285.7731, "ARG_OF_PERICENTER": 1.9109, "MEAN_ANOMALY": 245.9993, "EPHEMERIS_TYPE": 0, "CLASSIFICATION_TYPE": "U", "NORAD_CAT_ID": 37834, "ELEMENT_SET_NO": 999, "REV_AT_EPOCH": 5205, "BSTAR": 0, "MEAN_MOTION_DOT": 7.4e-07, "MEAN_MOTION_DDOT": 0}, "tle": {"line1": "1 37834U 11056A   25357.72548838  .00000074  00000+0  00000+0 0  9994", "line2": "2 37834   0.0250 285.7731 0001779   1.9109 245.9993  1.00271479 52055"}}, "geometry": {"type": "Point", "coordinates": [-28.682715986587862, 0.0029168111480680184]}}, {"type": "Feature", "properties": {"norad_id": 38098, "name": "INTELSAT 22 (IS-22)", "group": "intelsat", "lat": -0.009602212562353024, "lon": -136.6293446189336, "alt_km": 35783.97185122259, "timestamp": "2025-12-24T03:53:29.310184+00:00", "meta": {"OBJECT_NAME": "INTELSAT 22 (IS-22)", "OBJECT_ID": "2012-011A", "EPOCH": "2025-12-23T19:13:39.531072", "MEAN_MOTION": 1.00270426, "ECCENTRICITY": 0.0001925, "INCLINATION": 0.0267, "RA_OF_ASC_NODE": 41.6369, "ARG_OF_PERICENTER": 254.1158, "MEAN_ANOMALY": 157.334, "EPHEMERIS_TYPE": 0, "CLASSIFICATION_TYPE": "U", "NORAD_CAT_ID": 38098, "ELEMENT_SET_NO": 999, "REV_AT_EPOCH": 543, "BSTAR": 0, "MEAN_MOTION_DOT": 0, "MEAN_MOTION_DDOT": 0}, "tle": {"line1": "1 38098U 12011A   25357.80115198  .00000000  00000+0  00000+0 0  9996", "line2": "2 38098   0.0267  41.6369 0001925 254.1158 157.3340  1.00270426  5434"}}, "geometry": {"type": "Point", "coordinates": [-136.6293446189336, -0.009602212562353024]}}, {"type": "Feature", "properties": {"norad_id": 38356, "name": "INTELSAT 19 (IS-19)", "group": "intelsat", "lat": -0.012408011466099126, "lon": -42.66362857243731, "alt_km": 35777.85186141662, "timestamp": "2025-12-24T03:53:29.310196+00:00", "meta": {"OBJECT_NAME": "INTELSAT 19 (IS-19)", "OBJECT_ID": "2012-030A", "EPOCH": "2025-12-23T17:20:42.576864", "MEAN_MOTION": 1.00272132, "ECCENTRICITY": 0.0002882, "INCLINATION": 0.0154, "RA_OF_ASC_NODE": 320.5305, "ARG_OF_PERICENTER": 308.4829, "MEAN_ANOMALY": 249.6763, "EPHEMERIS_TYPE": 0, "CLASSIFICATION_TYPE": "U", "NORAD_CAT_ID": 38356, "ELEMENT_SET_NO": 999, "REV_AT_EPOCH": 4869, "BSTAR": 0, "MEAN_MOTION_DOT": -3.5e-07, "MEAN_MOTION_DDOT": 0}, "tle": {"line1": "1 38356U 12030A   25357.72271501 -.00000035  00000+0  00000+0 0  9995", "line2": "2 38356   0.0154 320.5305 0002882 308.4829 249.6763  1.00272132 48691"}}, "geometry": {"type": "Point", "coordinates": [-42.66362857243731, -0.012408011466099126]}}, {"type": "Feature", "properties": {"norad_id": 38740, "name": "INTELSAT 20 (IS-20)", "group": "intelsat", "lat": -0.0015166878205006922, "lon": -140.1825882439534, "alt_km": 35775.7955744291, "timestamp": "2025-12-24T03:53:29.310209+00:00", "meta": {"OBJECT_NAME": "INTELSAT 20 (IS-20)", "OBJECT_ID": "2012-043A", "EPOCH": "2025-12-23T03:11:13.549344", "MEAN_MOTION": 1.0027156, "ECCENTRICITY": 0.00030742, "INCLINATION": 0.0106, "RA_OF_ASC_NODE": 57.5703, "ARG_OF_PERICENTER": 125.3187, "MEAN_ANOMALY": 25.3339, "EPHEMERIS_TYPE": 0, "CLASSIFICATION_TYPE": "U", "NORAD_CAT_ID": 38740, "ELEMENT_SET_NO": 999, "REV_AT_EPOCH": 4898, "BSTAR": 0, "MEAN_MOTION_DOT": -3e-08, "MEAN_MOTION_DDOT": 0}, "tle": {"line1": "1 38740U 12043A   25357.13279571 -.00000003  00000+0  00000+0 0  9991", "line2": "2 38740   0.0106  57.5703 0003074 125.3187  25.3339  1.00271560 48985"}}, "geometry": {"type": "Point", "coordinates": [-140.1825882439534, -0.0015166878205006922]}}, {"type": "Feature", "properties": {"norad_id": 38749, "name": "INTELSAT 21 (IS-21)", "group": "intelsat", "lat": 0.020819031723797926, "lon": 93.29419472873103, "alt_km": 35793.28504053312, "timestamp": "2025-12-24T03:53:29.310221+00:00", "meta": {"OBJECT_NAME": "INTELSAT 21 (IS-21)", "OBJECT_ID": "2012-045A", "EPOCH": "2025-12-23T11:08:42.768096", "MEAN_MOTION": 1.00268456, "ECCENTRICITY": 0.0001579, "INCLINATION": 0.0167, "RA_OF_ASC_NODE": 301.665, "ARG_OF_PERICENTER": 309.4209, "MEAN_ANOMALY": 310.3485, "EPHEMERIS_TYPE": 0, "CLASSIFICATION_TYPE": "U", "NORAD_CAT_ID": 38749, "ELEMENT_SET_NO": 999, "REV_AT_EPOCH": 4876, "BSTAR": 0, "MEAN_MOTION_DOT": -2.64e-06, "MEAN_MOTION_DDOT": 0}, "tle": {"line1": "1 38749U 12045A   25357.46438389 -.00000264  00000+0  00000+0 0  9991", "line2": "2 38749   0.0167 301.6650 0001579 309.4209 310.3485  1.00268456 48768"}}, "geometry": {"type": "Point", "coordinates": [93.29419472873103, 0.020819031723797926]}}, {"type": "Feature", "properties": {"norad_id": 38867, "name": "INTELSAT 23 (IS-23)", "group": "intelsat", "lat": 0.03414942974225663, "lon": 98.28989811107533, "alt_km": 35792.10573946531, "timestamp": "2025-12-24T03:53:29.310232+00:00", "meta": {"OBJECT_NAME": "INTELSAT 23 (IS-23)", "OBJECT_ID": "2012-057A", "EPOCH": "2025-12-23T18:01:01.217856", "MEAN_MOTION": 1.00264683, "ECCENTRICITY": 0.0001075, "INCLINATION": 0.0167, "RA_OF_ASC_NODE": 42.738, "ARG_OF_PERICENTER": 264.3522, "MEAN_ANOMALY": 2.6883, "EPHEMERIS_TYPE": 0, "CLASSIFICATION_TYPE": "U", "NORAD_CAT_ID": 38867, "ELEMENT_SET_NO": 999, "REV_AT_EPOCH": 4819, "BSTAR": 0, "MEAN_MOTION_DOT": -2.64e-06, "MEAN_MOTION_DDOT": 0}, "tle": {"line1": "1 38867U 12057A   25357.75070854 -.00000264  00000+0  00000+0 0  9996", "line2": "2 38867   0.0167  42.7380 0001075 264.3522   2.6883  1.00264683 48198"}}, "geometry": {"type": "Point", "coordinates": [98.28989811107533, 0.03414942974225663]}}, {"type": "Feature", "properties": {"norad_id": 39360, "name": "FM-6", "group": "intelsat", "lat": -0.0022700871186112095, "lon": 35.11161089410341, "alt_km": 35796.5829727062, "timestamp": "2025-12-24T03:53:29.310244+00:00", "meta": {"OBJECT_NAME": "FM-6", "OBJECT_ID": "2013-058A", "EPOCH": "2025-12-23T11:38:38.459904", "MEAN_MOTION": 1.00269364, "ECCENTRICITY": 0.0002971, "INCLINATION": 0.0125, "RA_OF_ASC_NODE": 63.3346, "ARG_OF_PERICENTER": 113.984, "MEAN_ANOMALY": 333.4468, "EPHEMERIS_TYPE": 0, "CLASSIFICATION_TYPE": "U", "NORAD_CAT_ID": 39360, "ELEMENT_SET_NO": 999, "REV_AT_EPOCH": 4431, "BSTAR": 0, "MEAN_MOTION_DOT": 4e-08, "MEAN_MOTION_DDOT": 0}, "tle": {"line1": "1 39360U 13058A   25357.48516736  .00000004  00000+0  00000+0 0  9992", "line2": "2 39360   0.0125  63.3346 0002971 113.9840 333.4468  1.00269364 44315"}}, "geometry": {"type": "Point", "coordinates": [35.11161089410341, -0.0022700871186112095]}}, {"type": "Feature", "properties": {"norad_id": 40271, "name": "INTELSAT 30 (IS-30)", "group": "intelsat", "lat": 0.02081655732936806, "lon": 56.2388165573407, "alt_km": 35781.15964308538, "timestamp": "2025-12-24T03:53:29.310256+00:00", "meta": {"OBJECT_NAME": "INTELSAT 30 (IS-30)", "OBJECT_ID": "2014-062A", "EPOCH": "2025-12-23T13:22:24.176064", "MEAN_MOTION": 1.00269419, "ECCENTRICITY": 0.0001607, "INCLINATION": 0.0118, "RA_OF_ASC_NODE": 25.2315, "ARG_OF_PERICENTER": 65.5054, "MEAN_ANOMALY": 107.1564, "EPHEMERIS_TYPE": 0, "CLASSIFICATION_TYPE": "U", "NORAD_CAT_ID": 40271, "ELEMENT_SET_NO": 999, "REV_AT_EPOCH": 503, "BSTAR": 0, "MEAN_MOTION_DOT": -1.29e-06, "MEAN_MOTION_DDOT": 0}, "tle": {"line1": "1 40271U 14062A   25357.55722426 -.00000129  00000+0  00000+0 0  9993", "line2": "2 40271   0.0118  25.2315 0001607  65.5054 107.1564  1.00269419  5037"}}, "geometry": {"type": "Point", "coordinates": [56.2388165573407, 0.02081655732936806]}}, {"type": "Feature", "properties": {"norad_id": 40333, "name": "DIRECTV 14", "group": "intelsat", "lat": 0.029335266268013048, "lon": 52.079709263863315, "alt_km": 35786.060793564524, "timestamp": "2025-12-24T03:53:29.310267+00:00", "meta": {"OBJECT_NAME": "DIRECTV 14", "OBJECT_ID": "2014-078B", "EPOCH": "2025-12-23T00:40:39.129888", "MEAN_MOTION": 1.00271593, "ECCENTRICITY": 4.075e-05, "INCLINATION": 0.0215, "RA_OF_ASC_NODE": 12.0937, "ARG_OF_PERICENTER": 126.9823, "MEAN_ANOMALY": 223.6888, "EPHEMERIS_TYPE": 0, "CLASSIFICATION_TYPE": "U", "NORAD_CAT_ID": 40333, "ELEMENT_SET_NO": 999, "REV_AT_EPOCH": 4027, "BSTAR": 0, "MEAN_MOTION_DOT": 0, "MEAN_MOTION_DDOT": 0}, "tle": {"line1": "1 40333U 14078B   25357.02823067  .00000000  00000+0  00000+0 0  9991", "line2": "2 40333   0.0215  12.0937 0000407 126.9823 223.6888  1.00271593 40275"}}, "geometry": {"type": "Point", "coordinates": [52.079709263863315, 0.029335266268013048]}}, {"type": "Feature", "properties": {"norad_id": 40663, "name": "DIRECTV 15", "group": "intelsat", "lat": 0.023754493747343217, "lon": 48.414064176237765, "alt_km": 35788.37847444702, "timestamp": "2025-12-24T03:53:29.310279+00:00", "meta": {"OBJECT_NAME": "DIRECTV 15", "OBJECT_ID": "2015-026A", "EPOCH": "2025-12-23T16:04:04.914912", "MEAN_MOTION": 1.00267894, "ECCENTRICITY": 5.61e-05, "INCLINATION": 0.0212, "RA_OF_ASC_NODE": 18.8544, "ARG_OF_PERICENTER": 150.3599, "MEAN_ANOMALY": 61.3814, "EPHEMERIS_TYPE": 0, "CLASSIFICATION_TYPE": "U", "NORAD_CAT_ID": 40663, "ELEMENT_SET_NO": 999, "REV_AT_EPOCH": 3870, "BSTAR": 0, "MEAN_MOTION_DOT": 0, "MEAN_MOTION_DDOT": 0}, "tle": {"line1": "1 40663U 15026A   25357.66950133  .00000000  00000+0  00000+0 0  9996", "line2": "2 40663   0.0212  18.8544 0000561 150.3599  61.3814  1.00267894 38708"}}, "geometry": {"type": "Point", "coordinates": [48.414064176237765, 0.023754493747343217]}}]}